IRIDIUM 144             
1 43249U 18030A   24283.24434419  .00000173  00000+0  54811-4 0  9997
2 43249  86.4044 187.8387 0002307  83.0001 277.1457 14.34217891341872
IRIDIUM 149             
1 43250U 18030B   24283.25068013  .00001297  00000+0  45621-3 0  9999
2 43250  86.4042 187.8101 0002458  76.4238 283.7231 14.34213849341873
IRIDIUM 157             
1 43251U 18030C   24282.85109878  .00000714  00000+0  24798-3 0  9995
2 43251  86.4045 188.0161 0002189  75.3867 284.7571 14.34215248341797
IRIDIUM 140             
1 43252U 18030D   24282.87012722  .00001265  00000+0  44448-3 0  9995
2 43252  86.4043 188.0227 0002257  88.4259 271.7196 14.34222037341855
IRIDIUM 145             
1 43253U 18030E   24282.85742826  .00000133  00000+0  40296-4 0  9990
2 43253  86.4043 188.0014 0002680  88.8670 271.2833 14.34213780341781
IRIDIUM 146             
1 43254U 18030F   24283.46632128  .00001132  00000+0  39707-3 0  9996
2 43254  86.4044 187.7612 0002636  85.7431 274.4066 14.34213608341888
IRIDIUM 148             
1 43255U 18030G   24283.50438722  .00000739  00000+0  25681-3 0  9994
2 43255  86.4043 187.7798 0002379  81.2385 278.9080 14.34215896341938
IRIDIUM 142             
1 43256U 18030H   24282.84475888  .00000065  00000+0  16176-4 0  9997
2 43256  86.4042 187.9664 0002710  82.4954 277.6550 14.34215575341792
